INTELSAT 903 (IS-903)   
1 27403U 02016A   17346.30532084 -.00000229  00000-0  00000+0 0  9994
2 27403   0.2233  95.3837 0000445 158.1402 266.0892  1.00270843 57478
